{
    "links": {
        "self": "http://www.neowsapp.com/rest/v1/neo/3532347?api_key=iIulBulltgU6a56xZRHN4H3l9WmuAYTsLGpBGhQ2"
    },
    "id": "3532347",
    "neo_reference_id": "3532347",
    "name": "(2010 MV)",
    "designation": "2010 MV",
    "nasa_jpl_url": "http://ssd.jpl.nasa.gov/sbdb.cgi?sstr=3532347",
    "absolute_magnitude_h": 24.6,
    "estimated_diameter": {
        "kilometers": {
            "estimated_diameter_min": 0.0319561887,
            "estimated_diameter_max": 0.0714562102
        },
        "meters": {
            "estimated_diameter_min": 31.9561886721,
            "estimated_diameter_max": 71.4562101727
        },
        "miles": {
            "estimated_diameter_min": 0.0198566489,
            "estimated_diameter_max": 0.0444008168
        },
        "feet": {
            "estimated_diameter_min": 104.8431420431,
            "estimated_diameter_max": 234.436392583
        }
    },
    "is_potentially_hazardous_asteroid": false,
    "close_approach_data": [
        {
            "close_approach_date": "2010-06-09",
            "close_approach_date_full": "2010-Jun-09 02:41",
            "epoch_date_close_approach": 1276051260000,
            "relative_velocity": {
                "kilometers_per_second": "6.427903125",
                "kilometers_per_hour": "23140.4512500177",
                "miles_per_hour": "14378.5765003235"
            },
            "miss_distance": {
                "astronomical": "0.0908310258",
                "lunar": "35.3332690362",
                "kilometers": "13588127.989595046",
                "miles": "8443271.2130457948"
            },
            "orbiting_body": "Earth"
        }
    ],
    "orbital_data": {
        "orbit_id": "6",
        "orbit_determination_date": "2017-04-06 08:57:14",
        "first_observation_date": "2010-06-18",
        "last_observation_date": "2010-06-19",
        "data_arc_in_days": 1,
        "observations_used": 24,
        "orbit_uncertainty": "9",
        "minimum_orbit_intersection": ".0691556",
        "jupiter_tisserand_invariant": "3.657",
        "epoch_osculation": "2455366.5",
        "eccentricity": ".4699641229572544",
        "semi_major_axis": "2.038597716224664",
        "inclination": "2.211945717447513",
        "ascending_node_longitude": "86.65376010008026",
        "orbital_period": "1063.152896891495",
        "perihelion_distance": "1.080529928456478",
        "perihelion_argument": "156.1403393826504",
        "aphelion_distance": "2.99666550399285",
        "perihelion_time": "2455344.936651654492",
        "mean_anomaly": "7.301682972487026",
        "mean_motion": ".3386154531983009",
        "equinox": "J2000",
        "orbit_class": {
            "orbit_class_type": "AMO",
            "orbit_class_description": "Near-Earth asteroid orbits similar to that of 1221 Amor",
            "orbit_class_range": "1.017 AU < q (perihelion) < 1.3 AU"
        }
    },
    "is_sentry_object": false
}